BEIDOU-2 IGSO-5         
1 37948U 11073A   26183.72937883 -.00000128  00000+0  00000+0 0  9990
2 37948  47.6496 271.3544 0114527 222.0502 141.5350  1.00270596 53296
LUCH-5A                 
1 37951U 11074B   26204.63085381 -.00000051  00000+0  00000+0 0  9991
2 37951   8.8435  73.2695 0002921  62.7569 199.4938  1.00274995 53419
BEIDOU-2 G5             
1 38091U 12008A   26204.83777839  .00000059  00000+0  00000+0 0  9990
2 38091   3.6630  69.4633 0007000 271.4859 320.8876  1.00273807 52734
BEIDOU-2 M3             
1 38250U 12018A   26204.70186385 -.00000096  00000+0  00000+0 0  9996
2 38250  55.7238 303.6434 0021129 272.2048  87.5851  1.86229831 96620
BEIDOU-2 M4             
1 38251U 12018B   26204.63422149 -.00000095  00000+0  00000+0 0  9999
2 38251  55.6237 302.8566 0012306 271.9994  87.8924  1.86229554 96625
SES-5                   
1 38652U 12036A   26204.61329853  .00000038  00000+0  00000+0 0  9996
2 38652   0.0430 324.3782 0002301 152.2057  50.5140  1.00270882 44821
BEIDOU-2 M6             
1 38775U 12050B   26201.12202765 -.00000077  00000+0  00000+0 0  9997
2 38775  56.5733  61.8055 0012726   2.2324 357.8361  1.86230986 93926
GSAT-10                 
1 38779U 12051B   26204.84263175 -.00000160  00000+0  00000+0 0  9999
2 38779   0.0703 261.8894 0007665 194.6566 231.3849  1.00272335 50463
NAVSTAR 67 (USA 239)    
1 38833U 12053A   26204.21294117 -.00000008  00000+0  00000+0 0  9994
2 38833  53.5904 142.1233 0182550  66.3747 295.5069  2.00568155100169
GSAT0103 (GALILEO-FM3)  
1 38857U 12055A   26200.15144010 -.00000035  00000+0  00000+0 0  9997
2 38857  55.8248 100.6680 0003622 312.6356  47.3724  1.70473478 85556
BEIDOU-2 G6             
1 38953U 12059A   26204.62894659 -.00000175  00000+0  00000+0 0  9990
2 38953   4.5115  73.1264 0008928 329.8199 208.8701  1.00273149 50274
LUCH-5B                 
1 38977U 12061A   26204.82299752 -.00000141  00000+0  00000+0 0  9997
2 38977  10.5609  49.5130 0003880 141.5559  30.4474  1.00270938 49979
COSMOS 2485 [GLONASS-M] 
1 39155U 13019A   26204.04299087 -.00000047  00000+0  00000+0 0  9990
2 39155  65.4401  72.4015 0022553 230.4230 129.4454  2.13103192103044
NAVSTAR 68 (USA 242)    
1 39166U 13023A   26204.57945161 -.00000009  00000+0  00000+0 0  9994
2 39166  54.4766 267.4892 0141416  51.1083 310.2165  2.00563677 96618
IRNSS-1A                
1 39199U 13034A   26203.69637116  .00000051  00000+0  00000+0 0  9998
2 39199  35.7966  63.3613 0018791 179.4799   3.3059  1.00271851 47728
NAVSTAR 69 (USA 248)    
1 39533U 14008A   26204.08273977  .00000004  00000+0  00000+0 0  9995
2 39533  53.6583 147.8555 0084019 231.5745 127.6451  2.00562163 90403
ASTRA 5B                
1 39617U 14011B   26204.86919735  .00000142  00000+0  00000+0 0  9990
2 39617   0.0607 314.8028 0002262 175.3919 147.7552  1.00273045 45039
COSMOS 2492 [GLONASS-M] 
1 39620U 14012A   26204.47110809 -.00000088  00000+0  00000+0 0  9997
2 39620  65.2739 312.7022 0010366 315.8790  44.0582  2.13103261 96018
IRNSS-1B                
1 39635U 14017A   26203.69637116  .00000145  00000+0  00000+0 0  9999
2 39635  28.8725 239.7926 0021340 191.4522 174.9685  1.00267424 45153
LUCH-5V                 
1 39727U 14023A   26204.85233231 -.00000268  00000+0  00000+0 0  9994
2 39727   5.2213  69.3619 0002416  79.0706 194.7306  1.00271434 44728
NAVSTAR 70 (USA 251)    
1 39741U 14026A   26204.35904777 -.00000111  00000+0  00000+0 0  9995
2 39741  56.4786 330.1096 0038204 325.5236  34.2337  2.00558475 89260
COSMOS 2500 [GLONASS-M] 
1 40001U 14032A   26204.17115103 -.00000089  00000+0  00000+0 0  9994
2 40001  65.2090 312.4566 0008517 191.8913 168.1090  2.13105924 94228
NAVSTAR 71 (USA 256)    
1 40105U 14045A   26204.45062037 -.00000067  00000+0  00000+0 0  9997
2 40105  55.3768  87.0199 0034748 118.5514 241.8496  2.00561117 86800
GSAT0201 (GALILEO 5)    
1 40128U 14050A   26202.91197597 -.00000055  00000+0  00000+0 0  9994
2 40128  48.8375 272.0101 1679296 180.7600 179.0021  1.85519659 78966
GSAT0202 (GALILEO 6)    
1 40129U 14050B   26203.70637764 -.00000045  00000+0  00000+0 0  9997
2 40129  48.8542 271.0635 1680735 181.4997 177.9799  1.85520638 81143
IRNSS-1C                
1 40269U 14061A   26204.62877324 -.00000163  00000+0  00000+0 0  9995
2 40269   6.6072  88.2365 0021856   6.4251 156.0981  1.00270971 43055
NAVSTAR 72 (USA 258)    
1 40294U 14068A   26204.31923838 -.00000075  00000+0  00000+0 0  9990
2 40294  57.0124  29.5642 0067458  72.5690 288.2082  2.00553866 85937
COSMOS 2501 [GLONASS-K] 
1 40315U 14075A   26203.02584043  .00000091  00000+0  00000+0 0  9997
2 40315  63.6188 189.1661 0022621 212.4834 147.3802  2.13101382 90595
NAVSTAR 73 (USA 260)    
1 40534U 15013A   26204.45997235  .00000084  00000+0  00000+0 0  9994
2 40534  53.1654 202.6776 0110283  40.1014 320.7251  2.00574235 82555
GSAT0203 (GALILEO 7)    
1 40544U 15017A   26203.99433833 -.00000107  00000+0  00000+0 0  9993
2 40544  56.7737 340.6207 0002917 252.5717 107.3911  1.70476506 69816
GSAT0204 (GALILEO 8)    
1 40545U 15017B   26204.25023220 -.00000106  00000+0  00000+0 0  9998
2 40545  56.7812 340.6325 0003029 234.2784 125.6881  1.70475959 32863
